{
  "type": "FeatureCollection",
  "features": [
    {
      "type": "Feature",
      "properties": {
        "norad_id": 41599,
        "name": "CARTOSAT-2C",
        "group": "resource",
        "lat": -74.71403466645599,
        "lon": -157.38997552308845,
        "alt_km": 521.8123928551249,
        "timestamp": "2025-12-20T03:42:47.049446+00:00",
        "meta_object_name": "CARTOSAT-2C",
        "meta_object_id": "2016-040A",
        "meta_epoch": "2025-12-19T20:15:48.974112",
        "meta_mean_motion": 15.19171104,
        "meta_eccentricity": 0.0011141,
        "meta_inclination": 97.4765,
        "meta_ra_of_asc_node": 51.0217,
        "meta_arg_of_pericenter": 40.783,
        "meta_mean_anomaly": 319.4237,
        "meta_ephemeris_type": 0,
        "meta_classification_type": "U",
        "meta_norad_cat_id": 41599,
        "meta_element_set_no": 999,
        "meta_rev_at_epoch": 52648,
        "meta_bstar": 6.2731e-05,
        "meta_mean_motion_dot": 1.252e-05,
        "meta_mean_motion_ddot": 0,
        "tle_line1": "1 41599U 16040A   25353.84431683  .00001252  00000+0  62731-4 0  9996",
        "tle_line2": "2 41599  97.4765  51.0217 0011141  40.7830 319.4237 15.19171104526488"
      },
      "geometry": {
        "type": "Point",
        "coordinates": [
          -157.38997552308845,
          -74.71403466645599
        ]
      }
    },
    {
      "type": "Feature",
      "properties": {
        "norad_id": 41601,
        "name": "SKYSAT-C1",
        "group": "resource",
        "lat": -49.70825190683064,
        "lon": 39.06113384402677,
        "alt_km": 473.83159555702696,
        "timestamp": "2025-12-20T03:42:47.049456+00:00",
        "meta_object_name": "SKYSAT-C1",
        "meta_object_id": "2016-040C",
        "meta_epoch": "2025-12-19T13:49:47.529120",
        "meta_mean_motion": 15.32708118,
        "meta_eccentricity": 0.000158,
        "meta_inclination": 96.9813,
        "meta_ra_of_asc_node": 30.2048,
        "meta_arg_of_pericenter": 351.0695,
        "meta_mean_anomaly": 9.052,
        "meta_ephemeris_type": 0,
        "meta_classification_type": "U",
        "meta_norad_cat_id": 41601,
        "meta_element_set_no": 999,
        "meta_rev_at_epoch": 53032,
        "meta_bstar": 0.00021842,
        "meta_mean_motion_dot": 6.827e-05,
        "meta_mean_motion_ddot": 0,
        "tle_line1": "1 41601U 16040C   25353.57624455  .00006827  00000+0  21842-3 0  9991",
        "tle_line2": "2 41601  96.9813  30.2048 0001580 351.0695   9.0520 15.32708118530325"
      },
      "geometry": {
        "type": "Point",
        "coordinates": [
          39.06113384402677,
          -49.70825190683064
        ]
      }
    },
    {
      "type": "Feature",
      "properties": {
        "norad_id": 41603,
        "name": "LAPAN-A3",
        "group": "resource",
        "lat": 64.14148640022076,
        "lon": -23.552595317577904,
        "alt_km": 467.9828578321276,
        "timestamp": "2025-12-20T03:42:47.049467+00:00",
        "meta_object_name": "LAPAN-A3",
        "meta_object_id": "2016-040E",
        "meta_epoch": "2025-12-19T21:09:28.600128",
        "meta_mean_motion": 15.31605625,
        "meta_eccentricity": 0.0008994,
        "meta_inclination": 97.1423,
        "meta_ra_of_asc_node": 351.1781,
        "meta_arg_of_pericenter": 304.9457,
        "meta_mean_anomaly": 55.094,
        "meta_ephemeris_type": 0,
        "meta_classification_type": "U",
        "meta_norad_cat_id": 41603,
        "meta_element_set_no": 999,
        "meta_rev_at_epoch": 52735,
        "meta_bstar": 9.1687e-05,
        "meta_mean_motion_dot": 2.727e-05,
        "meta_mean_motion_ddot": 0,
        "tle_line1": "1 41603U 16040E   25353.88158102  .00002727  00000+0  91687-4 0  9998",
        "tle_line2": "2 41603  97.1423 351.1781 0008994 304.9457  55.0940 15.31605625527359"
      },
      "geometry": {
        "type": "Point",
        "coordinates": [
          -23.552595317577904,
          64.14148640022076
        ]
      }
    },
    {
      "type": "Feature",
      "properties": {
        "norad_id": 41604,
        "name": "BIROS",
        "group": "resource",
        "lat": 35.36349708659599,
        "lon": 20.84758611801816,
        "alt_km": 293.2646905921856,
        "timestamp": "2025-12-20T03:42:47.049477+00:00",
        "meta_object_name": "BIROS",
        "meta_object_id": "2016-040F",
        "meta_epoch": "2025-12-19T01:55:23.148192",
        "meta_mean_motion": 15.92127149,
        "meta_eccentricity": 0.00035441,
        "meta_inclination": 97.0685,
        "meta_ra_of_asc_node": 24.7778,
        "meta_arg_of_pericenter": 134.1983,
        "meta_mean_anomaly": 225.9584,
        "meta_ephemeris_type": 0,
        "meta_classification_type": "U",
        "meta_norad_cat_id": 41604,
        "meta_element_set_no": 999,
        "meta_rev_at_epoch": 52973,
        "meta_bstar": 0.00053351864,
        "meta_mean_motion_dot": 0.00176218,
        "meta_mean_motion_ddot": 1.3459503e-05,
        "tle_line1": "1 41604U 16040F   25353.08012903  .00176218  13460-4  53352-3 0  9991",
        "tle_line2": "2 41604  97.0685  24.7778 0003544 134.1983 225.9584 15.92127149529734"
      },
      "geometry": {
        "type": "Point",
        "coordinates": [
          20.84758611801816,
          35.36349708659599
        ]
      }
    },
    {
      "type": "Feature",
      "properties": {
        "norad_id": 41727,
        "name": "GAOFEN-3",
        "group": "resource",
        "lat": -18.971445352059142,
        "lon": 2.540819506514228,
        "alt_km": 756.0345252100742,
        "timestamp": "2025-12-20T03:42:47.049487+00:00",
        "meta_object_name": "GAOFEN-3",
        "meta_object_id": "2016-049A",
        "meta_epoch": "2025-12-19T21:08:29.463648",
        "meta_mean_motion": 14.42214907,
        "meta_eccentricity": 0.0001255,
        "meta_inclination": 98.4032,
        "meta_ra_of_asc_node": 359.3584,
        "meta_arg_of_pericenter": 57.7589,
        "meta_mean_anomaly": 302.3722,
        "meta_ephemeris_type": 0,
        "meta_classification_type": "U",
        "meta_norad_cat_id": 41727,
        "meta_element_set_no": 999,
        "meta_rev_at_epoch": 49280,
        "meta_bstar": -1.3385e-05,
        "meta_mean_motion_dot": -8.8e-07,
        "meta_mean_motion_ddot": 0,
        "tle_line1": "1 41727U 16049A   25353.88089657 -.00000088  00000+0 -13385-4 0  9991",
        "tle_line2": "2 41727  98.4032 359.3584 0001255  57.7589 302.3722 14.42214907492806"
      },
      "geometry": {
        "type": "Point",
        "coordinates": [
          2.540819506514228,
          -18.971445352059142
        ]
      }
    },
    {
      "type": "Feature",
      "properties": {
        "norad_id": 41771,
        "name": "SKYSAT-C4",
        "group": "resource",
        "lat": 36.02780910130756,
        "lon": -155.93757758267026,
        "alt_km": 435.12884986486824,
        "timestamp": "2025-12-20T03:42:47.049497+00:00",
        "meta_object_name": "SKYSAT-C4",
        "meta_object_id": "2016-058B",
        "meta_epoch": "2025-12-19T00:37:25.370976",
        "meta_mean_motion": 15.42424103,
        "meta_eccentricity": 0.00020919,
        "meta_inclination": 96.9363,
        "meta_ra_of_asc_node": 17.9086,
        "meta_arg_of_pericenter": 130.2828,
        "meta_mean_anomaly": 229.8603,
        "meta_ephemeris_type": 0,
        "meta_classification_type": "U",
        "meta_norad_cat_id": 41771,
        "meta_element_set_no": 999,
        "meta_rev_at_epoch": 51764,
        "meta_bstar": 0.00028649124,
        "meta_mean_motion_dot": 0.00012311,
        "meta_mean_motion_ddot": 0,
        "tle_line1": "1 41771U 16058B   25353.02598809  .00012311  00000+0  28649-3 0  9998",
        "tle_line2": "2 41771  96.9363  17.9086 0002091 130.2828 229.8603 15.42424103517644"
      },
      "geometry": {
        "type": "Point",
        "coordinates": [
          -155.93757758267026,
          36.02780910130756
        ]
      }
    },
    {
      "type": "Feature",
      "properties": {
        "norad_id": 41772,
        "name": "SKYSAT-C5",
        "group": "resource",
        "lat": -18.332412795188738,
        "lon": -144.76139152080265,
        "alt_km": 467.7480344677924,
        "timestamp": "2025-12-20T03:42:47.049508+00:00",
        "meta_object_name": "SKYSAT-C5",
        "meta_object_id": "2016-058C",
        "meta_epoch": "2025-12-19T09:37:46.106976",
        "meta_mean_motion": 15.33990417,
        "meta_eccentricity": 0.0003766,
        "meta_inclination": 97.075,
        "meta_ra_of_asc_node": 36.8752,
        "meta_arg_of_pericenter": 260.952,
        "meta_mean_anomaly": 99.1298,
        "meta_ephemeris_type": 0,
        "meta_classification_type": "U",
        "meta_norad_cat_id": 41772,
        "meta_element_set_no": 999,
        "meta_rev_at_epoch": 51618,
        "meta_bstar": 0.00022283,
        "meta_mean_motion_dot": 7.254e-05,
        "meta_mean_motion_ddot": 0,
        "tle_line1": "1 41772U 16058C   25353.40122809  .00007254  00000+0  22283-3 0  9992",
        "tle_line2": "2 41772  97.0750  36.8752 0003766 260.9520  99.1298 15.33990417516189"
      },
      "geometry": {
        "type": "Point",
        "coordinates": [
          -144.76139152080265,
          -18.332412795188738
        ]
      }
    }
  ]
}